[{"OBJECT_NAME":"SUPERVIEW-1 03","OBJECT_ID":"2018-002A","EPOCH":"2026-03-09T22:14:33.880992","MEAN_MOTION":15.35916978,"ECCENTRICITY":0.00509393,"INCLINATION":97.3162,"RA_OF_ASC_NODE":154.1458,"ARG_OF_PERICENTER":177.0269,"MEAN_ANOMALY":183.1288,"EPHEMERIS_TYPE":0,"CLASSIFICATION_TYPE":"U","NORAD_CAT_ID":43099,"ELEMENT_SET_NO":999,"REV_AT_EPOCH":45311,"BSTAR":0.00062641306,"MEAN_MOTION_DOT":0.00022818,"MEAN_MOTION_DDOT":0},{"OBJECT_NAME":"STARLINK-36076","OBJECT_ID":"2025-270A","EPOCH":"2026-03-08T23:59:56.709888","MEAN_MOTION":15.27585628,"ECCENTRICITY":5.93e-5,"INCLINATION":42.9986,"RA_OF_ASC_NODE":59.7942,"ARG_OF_PERICENTER":258.8349,"MEAN_ANOMALY":101.2436,"EPHEMERIS_TYPE":0,"CLASSIFICATION_TYPE":"U","NORAD_CAT_ID":66588,"ELEMENT_SET_NO":999,"REV_AT_EPOCH":1760,"BSTAR":0.00098624046,"MEAN_MOTION_DOT":0.00026981,"MEAN_MOTION_DDOT":0}]
